[{"OBJECT_NAME":"STARLINK-31621","OBJECT_ID":"2024-068L","EPOCH":"2026-03-09T05:54:47.810880","MEAN_MOTION":15.27567599,"ECCENTRICITY":0.00013699,"INCLINATION":43.0064,"RA_OF_ASC_NODE":37.1437,"ARG_OF_PERICENTER":259.3328,"MEAN_ANOMALY":100.7369,"EPHEMERIS_TYPE":0,"CLASSIFICATION_TYPE":"U","NORAD_CAT_ID":59465,"ELEMENT_SET_NO":999,"REV_AT_EPOCH":10845,"BSTAR":-8.3213466e-5,"MEAN_MOTION_DOT":-2.55e-5,"MEAN_MOTION_DDOT":0},{"OBJECT_NAME":"COSMOS 2535 DEB","OBJECT_ID":"2019-039M","EPOCH":"2026-03-08T03:25:35.903424","MEAN_MOTION":15.28322551,"ECCENTRICITY":0.0014917,"INCLINATION":97.5619,"RA_OF_ASC_NODE":139.2722,"ARG_OF_PERICENTER":329.0964,"MEAN_ANOMALY":30.9396,"EPHEMERIS_TYPE":0,"CLASSIFICATION_TYPE":"U","NORAD_CAT_ID":44641,"ELEMENT_SET_NO":999,"REV_AT_EPOCH":35167,"BSTAR":0.0011539757,"MEAN_MOTION_DOT":0.0003196,"MEAN_MOTION_DDOT":0}]
